{"type": "FeatureCollection", "features": [ {"type": "Feature", "properties": {"norad_id": 41774, "name": "SKYSAT-C3", "group": "resource", "lat": -40.70939607726072, "lon": -174.52811054473835, "alt_km": 441.82463347735484, "timestamp": "2025-12-03T06:58:42.898756+00:00", "meta": {"OBJECT_NAME": "SKYSAT-C3", "OBJECT_ID": "2016-058E", "EPOCH": "2025-12-02T16:01:27.717024", "MEAN_MOTION": 15.43855175, "ECCENTRICITY": 0.0001406, "INCLINATION": 96.9316, "RA_OF_ASC_NODE": 10.8867, "ARG_OF_PERICENTER": 100.6111, "MEAN_ANOMALY": 259.5296, "EPHEMERIS_TYPE": 0, "CLASSIFICATION_TYPE": "U", "NORAD_CAT_ID": 41774, "ELEMENT_SET_NO": 999, "REV_AT_EPOCH": 51570, "BSTAR": 0.00049055, "MEAN_MOTION_DOT": 0.00022201, "MEAN_MOTION_DDOT": 0}, "tle": {"line1": "1 41774U 16058E   25336.66768191  .00022201  00000+0  49055-3 0  9998", "line2": "2 41774  96.9316  10.8867 0001406 100.6111 259.5296 15.43855175515700"}}, "geometry": {"type": "Point", "coordinates": [-174.52811054473835, -40.70939607726072]}}, {"type": "Feature", "properties": {"norad_id": 41785, "name": "ALSAT 1B", "group": "resource", "lat": 6.767859467910917, "lon": -11.441593600110544, "alt_km": 660.607943373182, "timestamp": "2025-12-03T06:58:42.898766+00:00", "meta": {"OBJECT_NAME": "ALSAT 1B", "OBJECT_ID": "2016-059C", "EPOCH": "2025-12-02T21:09:33.973344", "MEAN_MOTION": 14.72058476, "ECCENTRICITY": 0.001035, "INCLINATION": 97.782, "RA_OF_ASC_NODE": 349.0968, "ARG_OF_PERICENTER": 131.7947, "MEAN_ANOMALY": 228.4147, "EPHEMERIS_TYPE": 0, "CLASSIFICATION_TYPE": "U", "NORAD_CAT_ID": 41785, "ELEMENT_SET_NO": 999, "REV_AT_EPOCH": 49169, "BSTAR": 0.00011028, "MEAN_MOTION_DOT": 6.46e-06, "MEAN_MOTION_DDOT": 0}, "tle": {"line1": "1 41785U 16059C   25336.88164321  .00000646  00000+0  11028-3 0  9998", "line2": "2 41785  97.7820 349.0968 0010350 131.7947 228.4147 14.72058476491691"}}, "geometry": {"type": "Point", "coordinates": [-11.441593600110544, 6.767859467910917]}}, {"type": "Feature", "properties": {"norad_id": 41787, "name": "PATHFINDER 1", "group": "resource", "lat": -66.31373764306646, "lon": 142.26101975228704, "alt_km": 692.5501133592907, "timestamp": "2025-12-03T06:58:42.898776+00:00", "meta": {"OBJECT_NAME": "PATHFINDER 1", "OBJECT_ID": "2016-059E", "EPOCH": "2025-12-02T18:23:59.201088", "MEAN_MOTION": 14.67292706, "ECCENTRICITY": 0.0029945, "INCLINATION": 97.8139, "RA_OF_ASC_NODE": 340.0032, "ARG_OF_PERICENTER": 111.4873, "MEAN_ANOMALY": 248.953, "EPHEMERIS_TYPE": 0, "CLASSIFICATION_TYPE": "U", "NORAD_CAT_ID": 41787, "ELEMENT_SET_NO": 999, "REV_AT_EPOCH": 49090, "BSTAR": 0.00019853, "MEAN_MOTION_DOT": 1.081e-05, "MEAN_MOTION_DDOT": 0}, "tle": {"line1": "1 41787U 16059E   25336.76665742  .00001081  00000+0  19853-3 0  9998", "line2": "2 41787  97.8139 340.0032 0029945 111.4873 248.9530 14.67292706490909"}}, "geometry": {"type": "Point", "coordinates": [142.26101975228704, -66.31373764306646]}}, {"type": "Feature", "properties": {"norad_id": 41790, "name": "SCATSAT 1", "group": "resource", "lat": -25.774980135690356, "lon": -150.1239522391756, "alt_km": 612.2260525781185, "timestamp": "2025-12-03T06:58:42.898787+00:00", "meta": {"OBJECT_NAME": "SCATSAT 1", "OBJECT_ID": "2016-059H", "EPOCH": "2025-12-02T17:03:45.639360", "MEAN_MOTION": 14.78878629, "ECCENTRICITY": 0.0055764, "INCLINATION": 98.1482, "RA_OF_ASC_NODE": 33.2561, "ARG_OF_PERICENTER": 159.846, "MEAN_ANOMALY": 200.497, "EPHEMERIS_TYPE": 0, "CLASSIFICATION_TYPE": "U", "NORAD_CAT_ID": 41790, "ELEMENT_SET_NO": 999, "REV_AT_EPOCH": 7254, "BSTAR": 0.0003316, "MEAN_MOTION_DOT": 2.45e-05, "MEAN_MOTION_DDOT": 0}, "tle": {"line1": "1 41790U 16059H   25336.71094490  .00002450  00000+0  33160-3 0  9991", "line2": "2 41790  98.1482  33.2561 0055764 159.8460 200.4970 14.78878629 72545"}}, "geometry": {"type": "Point", "coordinates": [-150.1239522391756, -25.774980135690356]}}, {"type": "Feature", "properties": {"norad_id": 41875, "name": "GOKTURK 1A", "group": "resource", "lat": 60.475595506606396, "lon": 64.42652115176972, "alt_km": 677.7067384973134, "timestamp": "2025-12-03T06:58:42.898797+00:00", "meta": {"OBJECT_NAME": "GOKTURK 1A", "OBJECT_ID": "2016-073A", "EPOCH": "2025-12-02T20:35:20.107968", "MEAN_MOTION": 14.62760137, "ECCENTRICITY": 0.0001238, "INCLINATION": 98.1431, "RA_OF_ASC_NODE": 229.3548, "ARG_OF_PERICENTER": 81.929, "MEAN_ANOMALY": 278.2052, "EPHEMERIS_TYPE": 0, "CLASSIFICATION_TYPE": "U", "NORAD_CAT_ID": 41875, "ELEMENT_SET_NO": 999, "REV_AT_EPOCH": 48012, "BSTAR": 0.00015569, "MEAN_MOTION_DOT": 7.47e-06, "MEAN_MOTION_DDOT": 0}, "tle": {"line1": "1 41875U 16073A   25336.85787162  .00000747  00000+0  15569-3 0  9991", "line2": "2 41875  98.1431 229.3548 0001238  81.9290 278.2052 14.62760137480127"}}, "geometry": {"type": "Point", "coordinates": [64.42652115176972, 60.475595506606396]}}, {"type": "Feature", "properties": {"norad_id": 41877, "name": "RESOURCESAT-2A", "group": "resource", "lat": 53.58489620788713, "lon": -120.70962503136812, "alt_km": 815.7315181091462, "timestamp": "2025-12-03T06:58:42.898807+00:00", "meta": {"OBJECT_NAME": "RESOURCESAT-2A", "OBJECT_ID": "2016-074A", "EPOCH": "2025-12-02T20:15:19.394208", "MEAN_MOTION": 14.21592495, "ECCENTRICITY": 0.0001173, "INCLINATION": 98.7768, "RA_OF_ASC_NODE": 46.7571, "ARG_OF_PERICENTER": 304.5647, "MEAN_ANOMALY": 55.5419, "EPHEMERIS_TYPE": 0, "CLASSIFICATION_TYPE": "U", "NORAD_CAT_ID": 41877, "ELEMENT_SET_NO": 999, "REV_AT_EPOCH": 46640, "BSTAR": 0.00012078, "MEAN_MOTION_DOT": 2.2e-06, "MEAN_MOTION_DDOT": 0}, "tle": {"line1": "1 41877U 16074A   25336.84397447  .00000220  00000+0  12078-3 0  9994", "line2": "2 41877  98.7768  46.7571 0001173 304.5647  55.5419 14.21592495466406"}}, "geometry": {"type": "Point", "coordinates": [-120.70962503136812, 53.58489620788713]}}, {"type": "Feature", "properties": {"norad_id": 41948, "name": "CARTOSAT-2D", "group": "resource", "lat": 56.10647019337972, "lon": 23.714622570292338, "alt_km": 505.18102755268865, "timestamp": "2025-12-03T06:58:42.898818+00:00", "meta": {"OBJECT_NAME": "CARTOSAT-2D", "OBJECT_ID": "2017-008A", "EPOCH": "2025-12-03T00:24:23.291136", "MEAN_MOTION": 15.19334623, "ECCENTRICITY": 0.0004903, "INCLINATION": 97.4404, "RA_OF_ASC_NODE": 34.662, "ARG_OF_PERICENTER": 199.6362, "MEAN_ANOMALY": 160.4684, "EPHEMERIS_TYPE": 0, "CLASSIFICATION_TYPE": "U", "NORAD_CAT_ID": 41948, "ELEMENT_SET_NO": 999, "REV_AT_EPOCH": 48779, "BSTAR": 2.7501e-06, "MEAN_MOTION_DOT": -9e-08, "MEAN_MOTION_DDOT": 0}, "tle": {"line1": "1 41948U 17008A   25337.01693624 -.00000009  00000+0  27501-5 0  9992", "line2": "2 41948  97.4404  34.6620 0004903 199.6362 160.4684 15.19334623487790"}}, "geometry": {"type": "Point", "coordinates": [23.714622570292338, 56.10647019337972]}}, {"type": "Feature", "properties": {"norad_id": 42063, "name": "SENTINEL-2B", "group": "resource", "lat": 38.33407881424854, "lon": -123.28068664424471, "alt_km": 785.5615408378853, "timestamp": "2025-12-03T06:58:42.898828+00:00", "meta": {"OBJECT_NAME": "SENTINEL-2B", "OBJECT_ID": "2017-013A", "EPOCH": "2025-12-02T20:15:05.750784", "MEAN_MOTION": 14.30809493, "ECCENTRICITY": 0.0001118, "INCLINATION": 98.5727, "RA_OF_ASC_NODE": 49.4283, "ARG_OF_PERICENTER": 98.4833, "MEAN_ANOMALY": 261.6477, "EPHEMERIS_TYPE": 0, "CLASSIFICATION_TYPE": "U", "NORAD_CAT_ID": 42063, "ELEMENT_SET_NO": 999, "REV_AT_EPOCH": 45656, "BSTAR": 0.0001016, "MEAN_MOTION_DOT": 2.23e-06, "MEAN_MOTION_DDOT": 0}, "tle": {"line1": "1 42063U 17013A   25336.84381656  .00000223  00000+0  10160-3 0  9994", "line2": "2 42063  98.5727  49.4283 0001118  98.4833 261.6477 14.30809493456561"}}, "geometry": {"type": "Point", "coordinates": [-123.28068664424471, 38.33407881424854]}}, {"type": "Feature", "properties": {"norad_id": 42767, "name": "CARTOSAT-2E", "group": "resource", "lat": -32.62687189000384, "lon": 39.81131446236656, "alt_km": 513.2717845605102, "timestamp": "2025-12-03T06:58:42.898839+00:00", "meta": {"OBJECT_NAME": "CARTOSAT-2E", "OBJECT_ID": "2017-036C", "EPOCH": "2025-12-02T20:03:26.915616", "MEAN_MOTION": 15.19159451, "ECCENTRICITY": 0.0002354, "INCLINATION": 97.4579, "RA_OF_ASC_NODE": 34.5515, "ARG_OF_PERICENTER": 290.9445, "MEAN_ANOMALY": 69.1537, "EPHEMERIS_TYPE": 0, "CLASSIFICATION_TYPE": "U", "NORAD_CAT_ID": 42767, "ELEMENT_SET_NO": 999, "REV_AT_EPOCH": 46833, "BSTAR": 0.00035794, "MEAN_MOTION_DOT": 7.459e-05, "MEAN_MOTION_DDOT": 0}, "tle": {"line1": "1 42767U 17036C   25336.83572819  .00007459  00000+0  35794-3 0  9990", "line2": "2 42767  97.4579  34.5515 0002354 290.9445  69.1537 15.19159451468335"}}, "geometry": {"type": "Point", "coordinates": [39.81131446236656, -32.62687189000384]}}, {"type": "Feature", "properties": {"norad_id": 42920, "name": "FORMOSAT-5", "group": "resource", "lat": 2.299112116878782, "lon": -127.86961538545884, "alt_km": 731.40262174502, "timestamp": "2025-12-03T06:58:42.898849+00:00", "meta": {"OBJECT_NAME": "FORMOSAT-5", "OBJECT_ID": "2017-049A", "EPOCH": "2025-12-02T18:34:38.027136", "MEAN_MOTION": 14.50995301, "ECCENTRICITY": 0.0010347, "INCLINATION": 98.2464, "RA_OF_ASC_NODE": 51.2903, "ARG_OF_PERICENTER": 328.7715, "MEAN_ANOMALY": 31.2864, "EPHEMERIS_TYPE": 0, "CLASSIFICATION_TYPE": "U", "NORAD_CAT_ID": 42920, "ELEMENT_SET_NO": 999, "REV_AT_EPOCH": 43819, "BSTAR": 9.5697e-05, "MEAN_MOTION_DOT": 3.35e-06, "MEAN_MOTION_DDOT": 0}, "tle": {"line1": "1 42920U 17049A   25336.77405124  .00000335  00000+0  95697-4 0  9997", "line2": "2 42920  98.2464  51.2903 0010347 328.7715  31.2864 14.50995301438196"}}, "geometry": {"type": "Point", "coordinates": [-127.86961538545884, 2.299112116878782]}}]}